NORAD_CAT_ID,OBJECT_NAME,OBJECT_TYPE,EPOCH,MEAN_MOTION,ECCENTRICITY,INCLINATION,RA_OF_ASC_NODE,ARG_OF_PERICENTER,MEAN_ANOMALY,BSTAR,MEAN_MOTION_DOT,MEAN_MOTION_DDOT,TLE_LINE0,TLE_LINE1,TLE_LINE2,SEMIMAJOR_AXIS,PERIOD,APOGEE,PERIGEE,DECAYED
50805.0,STARLINK-3333,PAYLOAD,2023-02-12 10:32:56,15.0885081,9.49e-05,53.214,152.6091,179.8336,180.2656,0.0018693,0.00029596,0.0,0 STARLINK-3333,1 50805U 22001C   23043.43954801  .00029596  00000-0  18693-2 0  9999,2 50805  53.2140 152.6091 0000949 179.8336 180.2656 15.08850810 62549,6917.847,95.437,540.369,539.056,0.0
50805.0,STARLINK-3333,PAYLOAD,2023-02-12 13:43:43,15.08858739,0.000151,53.2136,152.0143,64.8639,295.251,0.0025271,0.00040181,0.0,0 STARLINK-3333,1 50805U 22001C   23043.57203558  .00040181  00000-0  25271-2 0  9993,2 50805  53.2136 152.0143 0001510  64.8639 295.2510 15.08858739 61295,6917.823,95.436,540.733,538.644,0.0
50805.0,STARLINK-3333,PAYLOAD,2023-02-13 13:34:31,15.08861833,8.48e-05,53.2144,147.5524,48.8212,311.2853,0.0025829,0.00041083,0.0,0 STARLINK-3333,1 50805U 22001C   23044.56563822  .00041083  00000-0  25829-2 0  9997,2 50805  53.2144 147.5524 0000848  48.8212 311.2853 15.08861833 61443,6917.814,95.436,540.265,539.092,0.0
50805.0,STARLINK-3333,PAYLOAD,2023-02-13 18:20:40,15.08876504,0.0001329,53.2147,146.6617,70.5878,289.5258,0.0024853,0.00039527,0.0,0 STARLINK-3333,1 50805U 22001C   23044.76435467  .00039527  00000-0  24853-2 0  9998,2 50805  53.2147 146.6617 0001329  70.5878 289.5258 15.08876504 62745,6917.769,95.435,540.553,538.714,0.0
50805.0,STARLINK-3333,PAYLOAD,2023-02-13 21:31:26,15.08843961,0.0001073,53.2155,146.0664,92.8539,267.2576,-0.0013568,-0.00021818,0.0,0 STARLINK-3333,1 50805U 22001C   23044.89683926 -.00021818  00000-0 -13568-2 0  9994,2 50805  53.2155 146.0664 0001073  92.8539 267.2576 15.08843961 62766,6917.868,95.437,540.476,538.991,0.0
50805.0,STARLINK-3333,PAYLOAD,2023-02-14 10:14:32,15.08851352,0.0001264,53.2151,143.686,102.9713,257.1421,0.0019675,0.00031173,0.0,0 STARLINK-3333,1 50805U 22001C   23045.42676048  .00031173  00000-0  19675-2 0  9999,2 50805  53.2151 143.6860 0001264 102.9713 257.1421 15.08851352 62841,6917.846,95.437,540.585,538.836,0.0
50805.0,STARLINK-3333,PAYLOAD,2023-02-14 13:25:18,15.08866091,0.0001562,53.2151,143.0917,87.4461,272.671,0.002979,0.00047477,0.0,0 STARLINK-3333,1 50805U 22001C   23045.55924023  .00047477  00000-0  29790-2 0  9995,2 50805  53.2151 143.0917 0001562  87.4461 272.6710 15.08866091 61596,6917.801,95.436,540.746,538.585,0.0
50805.0,STARLINK-3333,PAYLOAD,2023-02-14 22:57:37,15.08849523,0.0001701,53.2159,141.3089,79.1109,281.0075,0.0025917,0.00041211,0.0,0 STARLINK-3333,1 50805U 22001C   23045.95668220  .00041211  00000-0  25917-2 0  9990,2 50805  53.2159 141.3089 0001701  79.1109 281.0075 15.08849523 62924,6917.851,95.437,540.893,538.54,0.0
50805.0,STARLINK-3333,PAYLOAD,2023-02-15 11:40:41,15.0886051,0.0001163,53.2144,138.9321,99.7165,260.3958,0.0018011,0.00028509,0.0,0 STARLINK-3333,1 50805U 22001C   23046.48659696  .00028509  00000-0  18011-2 0  9998,2 50805  53.2144 138.9321 0001163  99.7165 260.3958 15.08860510 63000,6917.818,95.436,540.487,538.878,0.0
50805.0,STARLINK-3333,PAYLOAD,2023-02-15 13:16:04,15.08882832,0.0001027,53.2147,138.6337,103.1298,256.9809,0.0032541,0.00051944,0.0,0 STARLINK-3333,1 50805U 22001C   23046.55283404  .00051944  00000-0  32541-2 0  9999,2 50805  53.2147 138.6337 0001027 103.1298 256.9809 15.08882832 61749,6917.749,95.435,540.325,538.904,0.0
50805.0,STARLINK-3333,PAYLOAD,2023-02-15 16:26:50,15.08901097,0.0001037,53.2148,138.0382,101.286,258.8248,0.0038043,0.00060883,0.0,0 STARLINK-3333,1 50805U 22001C   23046.68530958  .00060883  00000-0  38043-2 0  9997,2 50805  53.2148 138.0382 0001037 101.2860 258.8248 15.08901097 63036,6917.694,95.434,540.276,538.841,0.0
50805.0,STARLINK-3333,PAYLOAD,2023-02-16 11:31:27,15.08877129,0.0001068,53.2141,134.4699,79.7829,280.3284,0.0015232,0.00024062,0.0,0 STARLINK-3333,1 50805U 22001C   23047.48018102  .00024062  00000-0  15232-2 0  9992,2 50805  53.2141 134.4699 0001068  79.7829 280.3284 15.08877129 63159,6917.767,95.435,540.371,538.893,0.0
50805.0,STARLINK-3333,PAYLOAD,2023-02-16 13:06:50,15.08873105,0.0001331,53.2139,134.1753,53.3416,306.7699,0.0011259,0.00017692,0.0,0 STARLINK-3333,1 50805U 22001C   23047.54642055  .00017692  00000-0  11259-2 0  9995,2 50805  53.2139 134.1753 0001331  53.3416 306.7699 15.08873105 61899,6917.779,95.435,540.565,538.723,0.0
50805.0,STARLINK-3333,PAYLOAD,2023-02-16 14:42:13,15.08888773,0.000103,53.2142,133.8731,95.8017,264.3093,0.0014299,0.00022573,0.0,0 STARLINK-3333,1 50805U 22001C   23047.61265494  .00022573  00000-0  14299-2 0  9992,2 50805  53.2142 133.8731 0001030  95.8017 264.3093 15.08888773 61905,6917.731,95.434,540.309,538.884,0.0
50805.0,STARLINK-3333,PAYLOAD,2023-02-17 09:46:52,15.08830857,0.0001231,53.2142,130.3074,120.92,239.1913,0.0016561,0.0002616,0.0,0 STARLINK-3333,1 50805U 22001C   23048.40755081  .00026160  00000-0  16561-2 0  9996,2 50805  53.2142 130.3074 0001231 120.9200 239.1913 15.08830857 62029,6917.908,95.438,540.625,538.922,0.0
50805.0,STARLINK-3333,PAYLOAD,2023-02-17 19:19:12,15.08816115,0.0002448,53.2134,128.5233,41.3569,318.7608,0.00058301,8.997e-05,0.0,0 STARLINK-3333,1 50805U 22001C   23048.80500336  .00008997  00000-0  58301-3 0  9998,2 50805  53.2134 128.5233 0002448  41.3569 318.7608 15.08816115 63354,6917.953,95.439,541.512,538.125,0.0
50805.0,STARLINK-3333,PAYLOAD,2023-02-18 11:13:04,15.08795747,0.0001136,53.2148,125.5478,86.1058,274.0064,0.00083833,0.00013063,0.0,0 STARLINK-3333,1 50805U 22001C   23049.46741553  .00013063  00000-0  83833-3 0  9997,2 50805  53.2148 125.5478 0001136  86.1058 274.0064 15.08795747 63458,6918.016,95.44,540.667,539.095,0.0
50805.0,STARLINK-3333,PAYLOAD,2023-02-18 14:23:50,15.08809613,0.0001464,53.2151,124.9515,116.276,243.8383,0.00060001,9.266e-05,0.0,0 STARLINK-3333,1 50805U 22001C   23049.59989373  .00009266  00000-0  60001-3 0  9997,2 50805  53.2151 124.9515 0001464 116.2760 243.8383 15.08809613 62204,6917.973,95.439,540.851,538.825,0.0
50805.0,STARLINK-3333,PAYLOAD,2023-02-19 11:03:51,15.08859633,0.0001091,53.2141,121.0879,90.2044,269.9073,0.0012299,0.00019351,0.0,0 STARLINK-3333,1 50805U 22001C   23050.46101190  .00019351  00000-0  12299-2 0  9999,2 50805  53.2141 121.0879 0001091  90.2044 269.9073 15.08859633 63603,6917.82,95.436,540.44,538.931,0.0
50805.0,STARLINK-3333,PAYLOAD,2023-02-19 22:11:33,15.08859954,0.0001395,53.214,119.0079,78.355,281.7599,0.00069544,0.00010803,0.0,0 STARLINK-3333,1 50805U 22001C   23050.92468771  .00010803  00000-0  69544-3 0  9990,2 50805  53.2140 119.0079 0001395  78.3550 281.7599 15.08859954 63675,6917.819,95.436,540.649,538.719,0.0
50805.0,STARLINK-3333,PAYLOAD,2023-02-20 10:54:37,15.0886452,0.0001314,53.2142,116.628,86.6751,273.4392,0.00056849,8.777e-05,0.0,0 STARLINK-3333,1 50805U 22001C   23051.45460120  .00008777  00000-0  56849-3 0  9990,2 50805  53.2142 116.6280 0001314  86.6751 273.4392 15.08864520 62482,6917.805,95.436,540.579,538.761,0.0
50805.0,STARLINK-3333,PAYLOAD,2023-02-21 10:45:24,15.08853509,0.0001187,53.215,112.1675,95.1002,265.0126,0.00068788,0.00010681,0.0,0 STARLINK-3333,1 50805U 22001C   23052.44819879  .00010681  00000-0  68788-3 0  9991,2 50805  53.2150 112.1675 0001187  95.1002 265.0126 15.08853509 63907,6917.839,95.437,540.525,538.883,0.0
50805.0,STARLINK-3333,PAYLOAD,2023-02-21 20:17:43,15.08834822,0.00027,53.2149,110.3819,93.3862,266.7439,0.00086209,0.00013457,0.0,0 STARLINK-3333,1 50805U 22001C   23052.84564543  .00013457  00000-0  86209-3 0  9992,2 50805  53.2149 110.3819 0002700  93.3862 266.7439 15.08834822 62698,6917.896,95.438,541.629,537.893,0.0
50805.0,STARLINK-3333,PAYLOAD,2023-02-22 02:39:16,15.08847411,0.000251,53.2148,109.1893,101.8546,258.2728,0.00079742,0.00012428,0.0,0 STARLINK-3333,1 50805U 22001C   23053.11060203  .00012428  00000-0  79742-3 0  9998,2 50805  53.2148 109.1893 0002510 101.8546 258.2728 15.08847411 64000,6917.858,95.437,541.459,537.986,0.0
50805.0,STARLINK-3333,PAYLOAD,2023-02-22 09:00:48,15.08839509,0.0002011,53.2159,108.0026,109.389,250.7319,0.00037816,5.735e-05,0.0,0 STARLINK-3333,1 50805U 22001C   23053.37556193  .00005735  00000-0  37816-3 0  9993,2 50805  53.2159 108.0026 0002011 109.3890 250.7319 15.08839509 64045,6917.882,95.438,541.138,538.356,0.0
50805.0,STARLINK-3333,PAYLOAD,2023-02-22 20:08:30,15.08823355,0.0001524,53.2149,105.9215,93.8556,266.261,-0.00032151,-5.399e-05,0.0,0 STARLINK-3333,1 50805U 22001C   23053.83924561 -.00005399  00000-0 -32151-3 0  9997,2 50805  53.2149 105.9215 0001524  93.8556 266.2610 15.08823355 62848,6917.931,95.439,540.851,538.742,0.0
50805.0,STARLINK-3333,PAYLOAD,2023-02-23 02:30:03,15.08824646,9.66e-05,53.2155,104.7315,94.41,265.7002,4.9148e-05,4.94e-06,0.0,0 STARLINK-3333,1 50805U 22001C   23054.10420648  .00000494  00000-0  49148-4 0  9999,2 50805  53.2155 104.7315 0000966  94.4100 265.7002 15.08824646 64153,6917.927,95.439,540.461,539.124,0.0
50805.0,STARLINK-3333,PAYLOAD,2023-02-23 08:51:36,15.08842856,0.0001201,53.2148,103.5425,97.6748,262.438,0.00077553,0.00012077,0.0,0 STARLINK-3333,1 50805U 22001C   23054.36916677  .00012077  00000-0  77553-3 0  9999,2 50805  53.2148 103.5425 0001201  97.6748 262.4380 15.08842856 64190,6917.872,95.437,540.567,538.906,0.0
50805.0,STARLINK-3333,PAYLOAD,2023-02-23 10:26:59,15.08838682,0.0001256,53.2147,103.2456,94.6885,265.425,0.0015697,0.00024781,0.0,0 STARLINK-3333,1 50805U 22001C   23054.43540873  .00024781  00000-0  15697-2 0  9993,2 50805  53.2147 103.2456 0001256  94.6885 265.4250 15.08838682 62930,6917.884,95.438,540.618,538.881,0.0
50805.0,STARLINK-3333,PAYLOAD,2023-02-23 19:59:18,15.08839745,0.0001184,53.2146,101.4607,92.2238,267.8889,0.00055084,8.49e-05,0.0,0 STARLINK-3333,1 50805U 22001C   23054.83284860  .00008490  00000-0  55084-3 0  9992,2 50805  53.2146 101.4607 0001184  92.2238 267.8889 15.08839745 64266,6917.881,95.438,540.565,538.927,0.0
